DONGPO 03               
1 53450U 22098G   26080.11920744  .00145460  00000+0  10313-2 0  9991
2 53450  97.5465 209.1861 0001893 247.5633 112.5430 15.73506956201212
DONGPO 04               
1 53451U 22098H   26080.36670405  .00301045  00000+0  12557-2 0  9990
2 53451  97.5497 213.1429 0004108 255.6539 104.4275 15.84898980201423
DONGPO 02               
1 53452U 22098J   26080.58549426  .00090001  00000+0  10651-2 0  9993
2 53452  97.5406 205.2619 0002727 261.1587  98.9361 15.60968241201073
DONGPO 01               
1 53453U 22098K   26080.61908475  .00087674  00000+0  10806-2 0  9995
2 53453  97.5468 205.9571 0001512 199.6607 160.4592 15.59911212201058
STARLINK-4415           
1 53465U 22099A   26080.58487371  .00000470  00000+0  36753-4 0  9992
2 53465  97.6022 202.9465 0000397 143.8433 216.2821 15.05653040197822
STARLINK-4398           
1 53466U 22099B   26080.58334491  .00042739  00000+0  28535-2 0  9998
2 53466  97.6033 201.9050 0001099  71.3583 356.8562 15.06868392  5757
STARLINK-4394           
1 53467U 22099C   26080.57930251  .00005597  00000+0  39143-3 0  9993
2 53467  97.6025 202.9978 0001156 254.4821 105.6278 15.05685946197838
STARLINK-4400           
1 53468U 22099D   26080.58334491  .00015425  00000+0  10958-2 0  9992
2 53468  97.6037 201.8614 0001454  94.3426 261.8744 15.04788481  5759
STARLINK-4399           
1 53469U 22099E   26080.30242644  .00000721  00000+0  54158-4 0  9996
2 53469  97.6031 202.6883 0001421 203.1269 156.9894 15.05654084197798
STARLINK-4393           
1 53470U 22099F   26080.58623117  .00001492  00000+0  12067-3 0  9994
2 53470  97.6019 201.8577 0000533  75.0578 285.0706 15.01260722197760
STARLINK-4316           
1 53471U 22099G   26080.58764092  .00004160  00000+0  29219-3 0  9995
2 53471  97.6025 202.9172 0001137 189.3399 170.7807 15.05671894197832
STARLINK-4447           
1 53472U 22099H   26080.58253214 -.00001346  00000+0 -10021-3 0  9991
2 53472  97.6013 201.8536 0000458 107.2417 252.8858 15.01273424197760
STARLINK-4383           
1 53473U 22099J   26080.62087714  .00001110  00000+0  81150-4 0  9996
2 53473  97.6034 203.0178 0001109  92.5090 267.6264 15.05653325197847
STARLINK-4445           
1 53474U 22099K   26080.58334491  .00033142  00000+0  24038-2 0  9999
2 53474  97.6025 201.8528 0001450  74.5046   7.8883 15.03838106  5662
STARLINK-4389           
1 53475U 22099L   26080.58334491  .00417219  00000+0  25647-1 0  9997
2 53475  97.6038 201.8978 0001576  78.5909  68.0926 15.07921239  5624
STARLINK-4378           
1 53476U 22099M   26080.35627112  .00054491  00000+0  37869-2 0  9997
2 53476  97.6041 201.6872 0001302  93.8858 266.2518 15.05301974197739
STARLINK-4412           
1 53477U 22099N   26080.58334491  .00026415  00000+0  17973-2 0  9997
2 53477  97.6020 201.8367 0001488 101.0154 279.0021 15.06283767  5700
STARLINK-4433           
1 53478U 22099P   26080.23815870 -.00000088  00000+0 -23142-5 0  9993
2 53478  97.6015 201.5263 0004714 190.0425 170.0706 15.01263092197718
STARLINK-4436           
1 53479U 22099Q   26080.59872542  .00000842  00000+0  62587-4 0  9993
2 53479  97.6027 203.0305 0000594 230.6457 129.4717 15.05647666197845
STARLINK-4442           
1 53480U 22099R   26080.58334491  .00022960  00000+0  15040-2 0  9995
2 53480  97.6029 202.9328 0001291  87.7579 347.6225 15.07722652  5772
STARLINK-4302           
1 53481U 22099S   26080.58334491  .00036923  00000+0  25170-2 0  9995
2 53481  97.6052 201.8744 0002101  71.5554  69.7071 15.06133745  5863
STARLINK-4360           
1 53482U 22099T   26080.58334491  .00029028  00000+0  20799-2 0  9996
2 53482  97.6025 201.8866 0001723  58.3317  99.7495 15.04327669  5814
STARLINK-4426           
1 53484U 22099V   26080.23873657  .00000540  00000+0  41599-4 0  9993
2 53484  97.6031 202.5775 0000671 202.5155 157.6042 15.05650449197780
STARLINK-4430           
1 53485U 22099W   26080.49233990  .00122785  00000+0  91402-2 0  9994
2 53485  97.6045 201.7694 0002815 135.7567 224.3884 15.02322512197750
STARLINK-4431           
1 53486U 22099X   26080.58334491  .00030891  00000+0  20082-2 0  9995
2 53486  97.6045 201.8998 0002120  72.3359 152.4011 15.07935778  5865
STARLINK-4432           
1 53487U 22099Y   26080.61810196  .00003296  00000+0  23251-3 0  9992
2 53487  97.6037 202.9749 0000682  97.6941 262.4363 15.05655683197845
STARLINK-4421           
1 53488U 22099Z   26080.59595743  .00001807  00000+0  12941-3 0  9998
2 53488  97.6027 203.0164 0001248 201.5968 158.5207 15.05647979197843
STARLINK-4392           
1 53489U 22099AA  26080.29581268  .00001796  00000+0  14436-3 0  9991
2 53489  97.6036 201.5529 0002088 169.0485 191.0785 15.01254846197720
STARLINK-4387           
1 53490U 22099AB  26080.58334491  .00033502  00000+0  21262-2 0  9993
2 53490  97.6042 202.9391 0001341  89.4011  78.6075 15.08802545  5825
