OBJECT_NAME,OBJECT_ID,EPOCH,MEAN_MOTION,ECCENTRICITY,INCLINATION,RA_OF_ASC_NODE,ARG_OF_PERICENTER,MEAN_ANOMALY,EPHEMERIS_TYPE,CLASSIFICATION_TYPE,NORAD_CAT_ID,ELEMENT_SET_NO,REV_AT_EPOCH,BSTAR,MEAN_MOTION_DOT,MEAN_MOTION_DDOT,OBJECT_TYPE
DONGPO 03,2022-098G,2026-03-21T02:51:39.522816,15.73506956,.00018932,97.5465,209.1861,247.5633,112.5430,0,U,53450,999,20121,.10312757E-2,.14546E-2,0,Active
DONGPO 04,2022-098H,2026-03-21T08:48:03.229920,15.84898980,.00041089,97.5497,213.1429,255.6539,104.4275,0,U,53451,999,20142,.12557163E-2,.301045E-2,0,Active
DONGPO 02,2022-098J,2026-03-21T14:03:06.704064,15.60968241,.00027271,97.5406,205.2619,261.1587,98.9361,0,U,53452,999,20107,.1065081E-2,.90001E-3,0,Active
DONGPO 01,2022-098K,2026-03-21T14:51:28.922400,15.59911212,.00015129,97.5468,205.9571,199.6607,160.4592,0,U,53453,999,20105,.10805642E-2,.87674E-3,0,Active
STARLINK-4415,2022-099A,2026-03-21T14:02:13.088544,15.05653040,.00003971,97.6022,202.9465,143.8433,216.2821,0,U,53465,999,19782,.36752655E-4,.47E-5,0,Active
STARLINK-4398,2022-099B,2026-03-21T14:00:01.000224,15.06868392,.00010998,97.6033,201.9050,71.3583,356.8562,0,U,53466,999,575,.28535385E-2,.42739E-3,0,Active
STARLINK-4394,2022-099C,2026-03-21T13:54:11.736864,15.05685946,.00011568,97.6025,202.9978,254.4821,105.6278,0,U,53467,999,19783,.39142823E-3,.5597E-4,0,Active
STARLINK-4400,2022-099D,2026-03-21T14:00:01.000224,15.04788481,.00014549,97.6037,201.8614,94.3426,261.8744,0,U,53468,999,575,.10958041E-2,.15425E-3,0,Active
STARLINK-4399,2022-099E,2026-03-21T07:15:29.644416,15.05654084,.00014216,97.6031,202.6883,203.1269,156.9894,0,U,53469,999,19779,.54157694E-4,.721E-5,0,Active
STARLINK-4393,2022-099F,2026-03-21T14:04:10.373088,15.01260722,.00005334,97.6019,201.8577,75.0578,285.0706,0,U,53470,999,19776,.12066505E-3,.1492E-4,0,Active
STARLINK-4316,2022-099G,2026-03-21T14:06:12.175488,15.05671894,.00011373,97.6025,202.9172,189.3399,170.7807,0,U,53471,999,19783,.29218588E-3,.416E-4,0,Active
STARLINK-4447,2022-099H,2026-03-21T13:58:50.776896,15.01273424,.00004586,97.6013,201.8536,107.2417,252.8858,0,U,53472,999,19776,-.10021438E-3,-.1346E-4,0,Active
STARLINK-4383,2022-099J,2026-03-21T14:54:03.784896,15.05653325,.00011098,97.6034,203.0178,92.5090,267.6264,0,U,53473,999,19784,.8115019E-4,.111E-4,0,Active
STARLINK-4445,2022-099K,2026-03-21T14:00:01.000224,15.03838106,.00014509,97.6025,201.8528,74.5046,7.8883,0,U,53474,999,566,.24037746E-2,.33142E-3,0,Active
STARLINK-4389,2022-099L,2026-03-21T14:00:01.000224,15.07921239,.0001576,97.6038,201.8978,78.5909,68.0926,0,U,53475,999,562,.25646857E-1,.417219E-2,0,Active
STARLINK-4378,2022-099M,2026-03-21T08:33:01.824768,15.05301974,.00013029,97.6041,201.6872,93.8858,266.2518,0,U,53476,999,19773,.37869376E-2,.54491E-3,0,Active
STARLINK-4412,2022-099N,2026-03-21T14:00:01.000224,15.06283767,.00014885,97.6020,201.8367,101.0154,279.0021,0,U,53477,999,570,.17972666E-2,.26415E-3,0,Active
STARLINK-4433,2022-099P,2026-03-21T05:42:56.911680,15.01263092,.00047143,97.6015,201.5263,190.0425,170.0706,0,U,53478,999,19771,-.2314246E-5,-.88E-6,0,Active
STARLINK-4436,2022-099Q,2026-03-21T14:22:09.876288,15.05647666,.00005944,97.6027,203.0305,230.6457,129.4717,0,U,53479,999,19784,.62586833E-4,.842E-5,0,Active
STARLINK-4442,2022-099R,2026-03-21T14:00:01.000224,15.07722652,.0001291,97.6029,202.9328,87.7579,347.6225,0,U,53480,999,577,.15040011E-2,.2296E-3,0,Active
STARLINK-4302,2022-099S,2026-03-21T14:00:01.000224,15.06133745,.00021014,97.6052,201.8744,71.5554,69.7071,0,U,53481,999,586,.25169662E-2,.36923E-3,0,Active
STARLINK-4360,2022-099T,2026-03-21T14:00:01.000224,15.04327669,.00017231,97.6025,201.8866,58.3317,99.7495,0,U,53482,999,581,.20799071E-2,.29028E-3,0,Active
STARLINK-4426,2022-099V,2026-03-21T05:43:46.839648,15.05650449,.00006712,97.6031,202.5775,202.5155,157.6042,0,U,53484,999,19778,.41598908E-4,.54E-5,0,Active
STARLINK-4430,2022-099W,2026-03-21T11:48:58.167360,15.02322512,.00028159,97.6045,201.7694,135.7567,224.3884,0,U,53485,999,19775,.9140191E-2,.122785E-2,0,Active
STARLINK-4431,2022-099X,2026-03-21T14:00:01.000224,15.07935778,.00021201,97.6045,201.8998,72.3359,152.4011,0,U,53486,999,586,.20082218E-2,.30891E-3,0,Active
STARLINK-4432,2022-099Y,2026-03-21T14:50:04.009344,15.05655683,.00006826,97.6037,202.9749,97.6941,262.4363,0,U,53487,999,19784,.23250622E-3,.3296E-4,0,Active
STARLINK-4421,2022-099Z,2026-03-21T14:18:10.721952,15.05647979,.00012485,97.6027,203.0164,201.5968,158.5207,0,U,53488,999,19784,.12940979E-3,.1807E-4,0,Active
STARLINK-4392,2022-099AA,2026-03-21T07:05:58.215552,15.01254846,.0002088,97.6036,201.5529,169.0485,191.0785,0,U,53489,999,19772,.14435992E-3,.1796E-4,0,Active
STARLINK-4387,2022-099AB,2026-03-21T14:00:01.000224,15.08802545,.00013411,97.6042,202.9391,89.4011,78.6075,0,U,53490,999,582,.21262168E-2,.33502E-3,0,Active
